STARLINK-2022           
1 47643U 21012Z   24198.11865376  .00000861  00000+0  76696-4 0  9993
2 47643  53.0543 232.1749 0001191  90.4291 269.6835 15.06394150189079
